{
  "links" : {
    "next" : "https://api.nasa.gov/neo/rest/v1/feed?start_date=2012-11-23&end_date=2012-11-23&detailed=true&api_key=t0TVs3DtDT2H8Oy2Zy8m2eVrNsAVKAexjcZXUckd",
    "prev" : "https://api.nasa.gov/neo/rest/v1/feed?start_date=2012-11-21&end_date=2012-11-21&detailed=true&api_key=t0TVs3DtDT2H8Oy2Zy8m2eVrNsAVKAexjcZXUckd",
    "self" : "https://api.nasa.gov/neo/rest/v1/feed?start_date=2012-11-22&end_date=2012-11-22&detailed=true&api_key=t0TVs3DtDT2H8Oy2Zy8m2eVrNsAVKAexjcZXUckd"
  },
  "element_count" : 5,
  "near_earth_objects" : {
    "2012-11-22" : [ {
      "links" : {
        "self" : "https://api.nasa.gov/neo/rest/v1/neo/2369984?api_key=t0TVs3DtDT2H8Oy2Zy8m2eVrNsAVKAexjcZXUckd"
      },
      "neo_reference_id" : "2369984",
      "name" : "369984 (1998 QR52)",
      "nasa_jpl_url" : "http://ssd.jpl.nasa.gov/sbdb.cgi?sstr=2369984",
      "absolute_magnitude_h" : 18.8,
      "estimated_diameter" : {
        "kilometers" : {
          "estimated_diameter_min" : 0.4619074603,
          "estimated_diameter_max" : 1.0328564805
        },
        "meters" : {
          "estimated_diameter_min" : 461.9074602816,
          "estimated_diameter_max" : 1032.8564805039
        },
        "miles" : {
          "estimated_diameter_min" : 0.2870159005,
          "estimated_diameter_max" : 0.6417870641
        },
        "feet" : {
          "estimated_diameter_min" : 1515.4444719902,
          "estimated_diameter_max" : 3388.6368554964
        }
      },
      "is_potentially_hazardous_asteroid" : false,
      "close_approach_data" : [ {
        "close_approach_date" : "2012-11-22",
        "epoch_date_close_approach" : 1353571200000,
        "relative_velocity" : {
          "kilometers_per_second" : "19.2605315782",
          "kilometers_per_hour" : "69337.9136813469",
          "miles_per_hour" : "43083.883087168"
        },
        "miss_distance" : {
          "astronomical" : "0.4244368354",
          "lunar" : "165.1059265137",
          "kilometers" : "63494848",
          "miles" : "39453868"
        },
        "orbiting_body" : "Earth"
      } ],
      "orbital_data" : {
        "orbit_id" : "74",
        "orbit_determination_date" : "2017-04-06 09:22:32",
        "orbit_uncertainty" : "0",
        "minimum_orbit_intersection" : ".209541",
        "jupiter_tisserand_invariant" : "5.803",
        "epoch_osculation" : "2458000.5",
        "eccentricity" : ".287746565372645",
        "semi_major_axis" : "1.043616937397781",
        "inclination" : "17.63552586668034",
        "ascending_node_longitude" : "316.2223522622041",
        "orbital_period" : "389.4126946448688",
        "perihelion_distance" : ".743319748096851",
        "perihelion_argument" : "204.3110432368127",
        "aphelion_distance" : "1.343914126698711",
        "perihelion_time" : "2457865.145652577157",
        "mean_anomaly" : "125.1309105797424",
        "mean_motion" : ".9244690914052193",
        "equinox" : "J2000"
      }
    }, {
      "links" : {
        "self" : "https://api.nasa.gov/neo/rest/v1/neo/3520758?api_key=t0TVs3DtDT2H8Oy2Zy8m2eVrNsAVKAexjcZXUckd"
      },
      "neo_reference_id" : "3520758",
      "name" : "(2010 HX107)",
      "nasa_jpl_url" : "http://ssd.jpl.nasa.gov/sbdb.cgi?sstr=3520758",
      "absolute_magnitude_h" : 23.6,
      "estimated_diameter" : {
        "kilometers" : {
          "estimated_diameter_min" : 0.0506471459,
          "estimated_diameter_max" : 0.1132504611
        },
        "meters" : {
          "estimated_diameter_min" : 50.6471458835,
          "estimated_diameter_max" : 113.2504610618
        },
        "miles" : {
          "estimated_diameter_min" : 0.0314706677,
          "estimated_diameter_max" : 0.0703705522
        },
        "feet" : {
          "estimated_diameter_min" : 166.1651821003,
          "estimated_diameter_max" : 371.5566426699
        }
      },
      "is_potentially_hazardous_asteroid" : false,
      "close_approach_data" : [ {
        "close_approach_date" : "2012-11-22",
        "epoch_date_close_approach" : 1353571200000,
        "relative_velocity" : {
          "kilometers_per_second" : "14.9948325277",
          "kilometers_per_hour" : "53981.3970998122",
          "miles_per_hour" : "33541.9408812694"
        },
        "miss_distance" : {
          "astronomical" : "0.4228004452",
          "lunar" : "164.4693756104",
          "kilometers" : "63250048",
          "miles" : "39301756"
        },
        "orbiting_body" : "Earth"
      } ],
      "orbital_data" : {
        "orbit_id" : "13",
        "orbit_determination_date" : "2017-04-06 08:57:40",
        "orbit_uncertainty" : "1",
        "minimum_orbit_intersection" : ".0135841",
        "jupiter_tisserand_invariant" : "7.245",
        "epoch_osculation" : "2458000.5",
        "eccentricity" : ".3005049778688926",
        "semi_major_axis" : ".8008085288113501",
        "inclination" : "3.365302320868675",
        "ascending_node_longitude" : "51.60300056349139",
        "orbital_period" : "261.7528756743129",
        "perihelion_distance" : ".5601615795836749",
        "perihelion_argument" : "353.020096352595",
        "aphelion_distance" : "1.041455478039025",
        "perihelion_time" : "2458078.556294495415",
        "mean_anomaly" : "252.6458173727455",
        "mean_motion" : "1.375343056203637",
        "equinox" : "J2000"
      }
    }, {
      "links" : {
        "self" : "https://api.nasa.gov/neo/rest/v1/neo/3581238?api_key=t0TVs3DtDT2H8Oy2Zy8m2eVrNsAVKAexjcZXUckd"
      },
      "neo_reference_id" : "3581238",
      "name" : "(2011 TG2)",
      "nasa_jpl_url" : "http://ssd.jpl.nasa.gov/sbdb.cgi?sstr=3581238",
      "absolute_magnitude_h" : 20.4,
      "estimated_diameter" : {
        "kilometers" : {
          "estimated_diameter_min" : 0.2210828104,
          "estimated_diameter_max" : 0.4943561926
        },
        "meters" : {
          "estimated_diameter_min" : 221.0828103591,
          "estimated_diameter_max" : 494.3561926196
        },
        "miles" : {
          "estimated_diameter_min" : 0.137374447,
          "estimated_diameter_max" : 0.3071786018
        },
        "feet" : {
          "estimated_diameter_min" : 725.3373275385,
          "estimated_diameter_max" : 1621.9035709942
        }
      },
      "is_potentially_hazardous_asteroid" : false,
      "close_approach_data" : [ {
        "close_approach_date" : "2012-11-22",
        "epoch_date_close_approach" : 1353571200000,
        "relative_velocity" : {
          "kilometers_per_second" : "13.6376401654",
          "kilometers_per_hour" : "49095.5045954573",
          "miles_per_hour" : "30506.037285994"
        },
        "miss_distance" : {
          "astronomical" : "0.4653347994",
          "lunar" : "181.0152435303",
          "kilometers" : "69613096",
          "miles" : "43255572"
        },
        "orbiting_body" : "Earth"
      } ],
      "orbital_data" : {
        "orbit_id" : "24",
        "orbit_determination_date" : "2017-04-06 08:52:33",
        "orbit_uncertainty" : "1",
        "minimum_orbit_intersection" : ".0511177",
        "jupiter_tisserand_invariant" : "6.484",
        "epoch_osculation" : "2458000.5",
        "eccentricity" : ".5147876322815463",
        "semi_major_axis" : ".8938575799171852",
        "inclination" : "21.09358036965412",
        "ascending_node_longitude" : "12.96137180959469",
        "orbital_period" : "308.6746169245088",
        "perihelion_distance" : ".4337107527547043",
        "perihelion_argument" : "218.6192689166658",
        "aphelion_distance" : "1.354004407079666",
        "perihelion_time" : "2457927.519776900601",
        "mean_anomaly" : "85.1151305460568",
        "mean_motion" : "1.166276655939104",
        "equinox" : "J2000"
      }
    } ]
  }
}